NORAD_CAT_ID,OBJECT_NAME,OBJECT_TYPE,EPOCH,MEAN_MOTION,ECCENTRICITY,INCLINATION,RA_OF_ASC_NODE,ARG_OF_PERICENTER,MEAN_ANOMALY,BSTAR,MEAN_MOTION_DOT,MEAN_MOTION_DDOT,TLE_LINE0,TLE_LINE1,TLE_LINE2,SEMIMAJOR_AXIS,PERIOD,APOGEE,PERIGEE,DECAYED
53029.0,STARLINK-4143,PAYLOAD,2023-05-28 21:46:11,15.08852292,7.94e-05,53.2165,314.1485,90.3865,269.7218,0.00017789,2.545e-05,0.0,0 STARLINK-4143,1 53029U 22076AV  23148.90708056  .00002545  00000-0  17789-3 0  9990,2 53029  53.2165 314.1485 0000794  90.3865 269.7218 15.08852292 49774,6917.843,95.437,540.257,539.159,0.0
53029.0,STARLINK-4143,PAYLOAD,2023-05-29 10:29:17,15.08836668,6.9e-05,53.217,311.774,52.4684,307.6371,0.00016774,2.383e-05,0.0,0 STARLINK-4143,1 53029U 22076AV  23149.43701038  .00002383  00000-0  16774-3 0  9995,2 53029  53.2170 311.7740 0000690  52.4684 307.6371 15.08836668 50324,6917.891,95.438,540.233,539.278,0.0
53029.0,STARLINK-4143,PAYLOAD,2023-05-29 18:26:13,15.08842864,7.47e-05,53.2172,310.2823,86.5189,273.5889,6.2809e-05,7.12e-06,0.0,0 STARLINK-4143,1 53029U 22076AV  23149.76820913  .00000712  00000-0  62809-4 0  9990,2 53029  53.2172 310.2823 0000747  86.5189 273.5889 15.08842864 49905,6917.872,95.437,540.253,539.22,0.0
53029.0,STARLINK-4143,PAYLOAD,2023-05-30 03:58:32,15.08839771,8.72e-05,53.2166,308.4984,80.6295,279.4795,5.7749e-05,6.31e-06,0.0,0 STARLINK-4143,1 53029U 22076AV  23150.16565203  .00000631  00000-0  57749-4 0  9991,2 53029  53.2166 308.4984 0000872  80.6295 279.4795 15.08839771 49967,6917.881,95.438,540.349,539.143,0.0
53029.0,STARLINK-4143,PAYLOAD,2023-05-30 15:06:14,15.08840228,8.89e-05,53.2163,306.4171,78.3349,281.7742,4.8776e-05,4.89e-06,0.0,0 STARLINK-4143,1 53029U 22076AV  23150.62933246  .00000489  00000-0  48776-4 0  9999,2 53029  53.2163 306.4171 0000889  78.3349 281.7742 15.08840228 50501,6917.88,95.438,540.36,539.13,0.0
53029.0,STARLINK-4143,PAYLOAD,2023-05-30 19:52:23,15.08846785,9.35e-05,53.2167,305.5243,78.1762,281.9335,3.0366e-05,1.96e-06,0.0,0 STARLINK-4143,1 53029U 22076AV  23150.82804847  .00000196  00000-0  30366-4 0  9996,2 53029  53.2167 305.5243 0000935  78.1762 281.9335 15.08846785 50069,6917.86,95.437,540.371,539.078,0.0
53029.0,STARLINK-4143,PAYLOAD,2023-05-31 13:21:37,15.0884165,8.66e-05,53.2158,302.2532,80.8011,279.3079,0.00011546,1.55e-05,0.0,0 STARLINK-4143,1 53029U 22076AV  23151.55668968  .00001550  00000-0  11546-3 0  9992,2 53029  53.2158 302.2532 0000866  80.8011 279.3079 15.08841650 50178,6917.875,95.437,540.339,539.141,0.0
53029.0,STARLINK-4143,PAYLOAD,2023-05-31 16:32:23,15.08847437,9.29e-05,53.2156,301.6575,95.7991,264.3107,0.00010214,1.339e-05,0.0,0 STARLINK-4143,1 53029U 22076AV  23151.68916581  .00001339  00000-0  10214-3 0  9999,2 53029  53.2156 301.6575 0000929  95.7991 264.3107 15.08847437 50667,6917.858,95.437,540.365,539.08,0.0
53029.0,STARLINK-4143,PAYLOAD,2023-06-01 10:01:39,15.08837248,9.11e-05,53.2148,298.3862,89.5532,270.5565,0.00021378,3.116e-05,0.0,0 STARLINK-4143,1 53029U 22076AV  23152.41781336  .00003116  00000-0  21378-3 0  9997,2 53029  53.2148 298.3862 0000911  89.5532 270.5565 15.08837248 50309,6917.889,95.438,540.384,539.124,0.0
53029.0,STARLINK-4143,PAYLOAD,2023-06-02 14:38:35,15.08837346,8.5e-05,53.2164,293.035,92.3656,267.7434,2.4903e-05,1.09e-06,0.0,0 STARLINK-4143,1 53029U 22076AV  23153.61013607  .00000109  00000-0  24903-4 0  9996,2 53029  53.2164 293.0350 0000850  92.3656 267.7434 15.08837346 50483,6917.889,95.438,540.342,539.165,0.0
53029.0,STARLINK-4143,PAYLOAD,2023-06-02 16:13:58,15.0883977,7.72e-05,53.2165,292.7374,92.1547,267.9534,4.8048e-05,4.77e-06,0.0,0 STARLINK-4143,1 53029U 22076AV  23153.67637365  .00000477  00000-0  48048-4 0  9999,2 53029  53.2165 292.7374 0000772  92.1547 267.9534 15.08839770 50965,6917.881,95.438,540.28,539.212,0.0
53029.0,STARLINK-4143,PAYLOAD,2023-06-03 09:43:13,15.08834352,9.62e-05,53.2159,289.466,100.2416,259.8685,4.3724e-05,4.08e-06,0.0,0 STARLINK-4143,1 53029U 22076AV  23154.40501934  .00000408  00000-0  43724-4 0  9993,2 53029  53.2159 289.4660 0000962 100.2416 259.8685 15.08834352 51077,6917.898,95.438,540.428,539.097,0.0
53029.0,STARLINK-4143,PAYLOAD,2023-06-03 12:54:00,15.0883342,8.85e-05,53.2158,288.8721,101.7813,258.3278,3.9605e-05,3.43e-06,0.0,0 STARLINK-4143,1 53029U 22076AV  23154.53750021  .00000343  00000-0  39605-4 0  9991,2 53029  53.2158 288.8721 0000885 101.7813 258.3278 15.08833420 50625,6917.901,95.438,540.378,539.153,0.0
53029.0,STARLINK-4143,PAYLOAD,2023-06-03 14:29:23,15.088346,8.57e-05,53.2161,288.5749,95.7233,264.3856,4.541e-05,4.35e-06,0.0,0 STARLINK-4143,1 53029U 22076AV  23154.60373965  .00000435  00000-0  45410-4 0  9990,2 53029  53.2161 288.5749 0000857  95.7233 264.3856 15.08834600 50634,6917.897,95.438,540.355,539.169,0.0
53029.0,STARLINK-4143,PAYLOAD,2023-06-04 14:20:10,15.08838852,8.14e-05,53.2161,284.1151,102.9858,257.1225,0.00011293,1.51e-05,0.0,0 STARLINK-4143,1 53029U 22076AV  23155.59733847  .00001510  00000-0  11293-3 0  9994,2 53029  53.2161 284.1151 0000814 102.9858 257.1225 15.08838852 50789,6917.884,95.438,540.312,539.186,0.0
53029.0,STARLINK-4143,PAYLOAD,2023-06-04 17:30:56,15.08842032,8.53e-05,53.216,283.5204,104.7622,255.3464,0.00018476,2.654e-05,0.0,0 STARLINK-4143,1 53029U 22076AV  23155.72981499  .00002654  00000-0  18476-3 0  9997,2 53029  53.2160 283.5204 0000853 104.7622 255.3464 15.08842032 51277,6917.874,95.437,540.329,539.149,0.0
53029.0,STARLINK-4143,PAYLOAD,2023-06-05 09:24:47,15.08838733,8.9e-05,53.2168,280.5456,82.205,277.9043,0.00015371,2.159e-05,0.0,0 STARLINK-4143,1 53029U 22076AV  23156.39221894  .00002159  00000-0  15371-3 0  9998,2 53029  53.2168 280.5456 0000890  82.2050 277.9043 15.08838733 51374,6917.884,95.438,540.365,539.134,0.0
53029.0,STARLINK-4143,PAYLOAD,2023-06-05 12:35:33,15.08843764,9.16e-05,53.2164,279.9507,80.5303,279.5792,0.00016734,2.377e-05,0.0,0 STARLINK-4143,1 53029U 22076AV  23156.52469559  .00002377  00000-0  16734-3 0  9991,2 53029  53.2164 279.9507 0000916  80.5303 279.5792 15.08843764 50929,6917.869,95.437,540.368,539.1,0.0
53029.0,STARLINK-4143,PAYLOAD,2023-06-05 17:21:42,15.08848984,9.08e-05,53.2162,279.0582,76.4825,283.6268,0.00020694,3.008e-05,0.0,0 STARLINK-4143,1 53029U 22076AV  23156.72341263  .00003008  00000-0  20694-3 0  9996,2 53029  53.2162 279.0582 0000908  76.4825 283.6268 15.08848984 51424,6917.853,95.437,540.346,539.09,0.0
53029.0,STARLINK-4143,PAYLOAD,2023-06-06 07:40:11,15.08840428,9.22e-05,53.2165,276.3828,75.0056,285.1038,4.1295e-05,3.7e-06,0.0,0 STARLINK-4143,1 53029U 22076AV  23157.31957727  .00000370  00000-0  41295-4 0  9990,2 53029  53.2165 276.3828 0000922  75.0056 285.1038 15.08840428 51514,6917.879,95.438,540.382,539.106,0.0
53029.0,STARLINK-4143,PAYLOAD,2023-06-06 12:26:20,15.08838097,9.15e-05,53.2164,275.4912,77.8854,282.224,-2.5896e-06,-3.29e-06,0.0,0 STARLINK-4143,1 53029U 22076AV  23157.51829797 -.00000329  00000-0 -25896-5 0  9993,2 53029  53.2164 275.4912 0000915  77.8854 282.2240 15.08838097 51078,6917.886,95.438,540.384,539.118,0.0
53029.0,STARLINK-4143,PAYLOAD,2023-06-06 17:12:29,15.08845475,8.58e-05,53.2151,274.5976,88.9209,271.1882,3.5833e-05,2.83e-06,0.0,0 STARLINK-4143,1 53029U 22076AV  23157.71701343  .00000283  00000-0  35833-4 0  9999,2 53029  53.2151 274.5976 0000858  88.9209 271.1882 15.08845475 51108,6917.864,95.437,540.322,539.135,0.0
53029.0,STARLINK-4143,PAYLOAD,2023-06-07 15:27:54,15.08839704,8.19e-05,53.2152,270.4357,57.8012,302.306,7.3116e-05,8.76e-06,0.0,0 STARLINK-4143,1 53029U 22076AV  23158.64437803  .00000876  00000-0  73116-4 0  9993,2 53029  53.2152 270.4357 0000819  57.8012 302.3060 15.08839704 51711,6917.881,95.438,540.313,539.18,0.0
53029.0,STARLINK-4143,PAYLOAD,2023-06-08 12:07:54,15.08839879,9.37e-05,53.2148,266.5691,87.4692,272.6407,0.00011984,1.62e-05,0.0,0 STARLINK-4143,1 53029U 22076AV  23159.50549712  .00001620  00000-0  11984-3 0  9994,2 53029  53.2148 266.5691 0000937  87.4692 272.6407 15.08839879 51376,6917.881,95.438,540.394,539.098,0.0
53029.0,STARLINK-4143,PAYLOAD,2023-06-08 13:43:17,15.08842555,8.81e-05,53.2161,266.271,93.3913,266.718,8.7208e-05,1.101e-05,0.0,0 STARLINK-4143,1 53029U 22076AV  23159.57173597  .00001101  00000-0  87208-4 0  9992,2 53029  53.2161 266.2710 0000881  93.3913 266.7180 15.08842555 51388,6917.873,95.437,540.347,539.128,0.0
53029.0,STARLINK-4143,PAYLOAD,2023-06-08 16:54:03,15.08847207,8.77e-05,53.2162,265.6752,102.1746,257.9345,0.00010079,1.317e-05,0.0,0 STARLINK-4143,1 53029U 22076AV  23159.70421218  .00001317  00000-0  10079-3 0  9993,2 53029  53.2162 265.6752 0000877 102.1746 257.9345 15.08847207 51874,6917.858,95.437,540.33,539.117,0.0
53029.0,STARLINK-4143,PAYLOAD,2023-06-09 07:12:32,15.08836817,0.0001122,53.2167,262.9955,141.7583,218.3489,8.9106e-05,1.13e-05,0.0,0 STARLINK-4143,1 53029U 22076AV  23160.30037791  .00001130  00000-0  89106-4 0  9991,2 53029  53.2167 262.9955 0001122 141.7583 218.3489 15.08836817 51961,6917.89,95.438,540.531,538.979,0.0
53029.0,STARLINK-4143,PAYLOAD,2023-06-09 13:34:04,15.08842897,0.0001299,53.2156,261.8108,96.2986,263.8154,0.00012675,1.73e-05,0.0,0 STARLINK-4143,1 53029U 22076AV  23160.56533557  .00001730  00000-0  12675-3 0  9992,2 53029  53.2156 261.8108 0001299  96.2986 263.8154 15.08842897 51535,6917.872,95.437,540.635,538.838,0.0
53029.0,STARLINK-4143,PAYLOAD,2023-06-10 13:24:52,15.08836792,8.8e-05,53.2158,257.3502,92.2054,267.9039,4.0362e-05,3.55e-06,0.0,0 STARLINK-4143,1 53029U 22076AV  23161.55894291  .00000355  00000-0  40362-4 0  9994,2 53029  53.2158 257.3502 0000880  92.2054 267.9039 15.08836792 51682,6917.89,95.438,540.364,539.146,0.0
53029.0,STARLINK-4143,PAYLOAD,2023-06-10 16:35:38,15.08845076,7.73e-05,53.2157,256.7562,91.4046,268.7035,1.6492e-05,-2.5e-07,0.0,0 STARLINK-4143,1 53029U 22076AV  23161.69141812 -.00000025  00000-0  16492-4 0  9995,2 53029  53.2157 256.7562 0000773  91.4046 268.7035 15.08845076 52178,6917.865,95.437,540.265,539.195,0.0
